{
  "type": "FeatureCollection",
  "features": [
    {
      "type": "Feature",
      "geometry": {
        "type": "LineString",
        "coordinates": [
          [
            -8.3578868,
            40.1915285
          ],
          [
            -8.358552,
            40.1914629
          ],
          [
            -8.3591528,
            40.1914793
          ],
          [
            -8.3597965,
            40.1918235
          ],
          [
            -8.3604617,
            40.192135
          ],
          [
            -8.3612127,
            40.1923153
          ],
          [
            -8.3621139,
            40.1922497
          ],
          [
            -8.3628864,
            40.192053
          ],
          [
            -8.3634443,
            40.1920366
          ],
          [
            -8.364603,
            40.1921514
          ],
          [
            -8.3652038,
            40.1919711
          ],
          [
            -8.3658476,
            40.1916432
          ],
          [
            -8.3661909,
            40.1916104
          ],
          [
            -8.3669634,
            40.1920858
          ],
          [
            -8.3678431,
            40.192807
          ],
          [
            -8.3684225,
            40.1935938
          ],
          [
            -8.3690233,
            40.1942166
          ],
          [
            -8.3692808,
            40.1947247
          ],
          [
            -8.3693325,
            40.1950032
          ],
          [
            -8.3694588,
            40.1952955
          ],
          [
            -8.3695812,
            40.1955442
          ],
          [
            -8.3700533,
            40.1961835
          ],
          [
            -8.3700747,
            40.1965768
          ],
          [
            -8.3698387,
            40.1970521
          ],
          [
            -8.3696885,
            40.1975766
          ]
        ]
      },
      "properties": {
        "id": "osm-10221406521-10221406543-545ebd4c17",
        "name": "Unnamed stream",
        "stroke": "#60a5fa",
        "stroke-width": 3
      }
    },
    {
      "type": "Feature",
      "geometry": {
        "type": "Point",
        "coordinates": [
          -8.3578868,
          40.1915285
        ]
      },
      "properties": {
        "title": "osm-10221406521-10221406543-545ebd4c17 upstream",
        "marker-color": "#16a34a"
      }
    },
    {
      "type": "Feature",
      "geometry": {
        "type": "Point",
        "coordinates": [
          -8.3696885,
          40.1975766
        ]
      },
      "properties": {
        "title": "osm-10221406521-10221406543-545ebd4c17 downstream",
        "marker-color": "#dc2626"
      }
    },
    {
      "type": "Feature",
      "geometry": {
        "type": "LineString",
        "coordinates": [
          [
            -8.3696885,
            40.1975766
          ],
          [
            -8.3700143,
            40.198209
          ]
        ]
      },
      "properties": {
        "id": "osm-10221406543-10221406544-839d310038",
        "name": "Unnamed stream",
        "stroke": "#60a5fa",
        "stroke-width": 3
      }
    },
    {
      "type": "Feature",
      "geometry": {
        "type": "Point",
        "coordinates": [
          -8.3696885,
          40.1975766
        ]
      },
      "properties": {
        "title": "osm-10221406543-10221406544-839d310038 upstream",
        "marker-color": "#16a34a"
      }
    },
    {
      "type": "Feature",
      "geometry": {
        "type": "Point",
        "coordinates": [
          -8.3700143,
          40.198209
        ]
      },
      "properties": {
        "title": "osm-10221406543-10221406544-839d310038 downstream",
        "marker-color": "#dc2626"
      }
    },
    {
      "type": "Feature",
      "geometry": {
        "type": "LineString",
        "coordinates": [
          [
            -8.3520125,
            40.2259469
          ],
          [
            -8.3531069,
            40.2249311
          ],
          [
            -8.3536862,
            40.2245543
          ],
          [
            -8.3546304,
            40.2242594
          ],
          [
            -8.3556603,
            40.2240464
          ],
          [
            -8.3565615,
            40.2238662
          ],
          [
            -8.3572482,
            40.2235549
          ],
          [
            -8.3579778,
            40.22326
          ],
          [
            -8.3590506,
            40.2230143
          ],
          [
            -8.3602094,
            40.2228668
          ],
          [
            -8.3610677,
            40.2226866
          ],
          [
            -8.3615721,
            40.2225383
          ]
        ]
      },
      "properties": {
        "id": "osm-10309165335-10309165346-d242fd8f93",
        "name": "Unnamed stream",
        "stroke": "#60a5fa",
        "stroke-width": 3
      }
    },
    {
      "type": "Feature",
      "geometry": {
        "type": "Point",
        "coordinates": [
          -8.3520125,
          40.2259469
        ]
      },
      "properties": {
        "title": "osm-10309165335-10309165346-d242fd8f93 upstream",
        "marker-color": "#16a34a"
      }
    },
    {
      "type": "Feature",
      "geometry": {
        "type": "Point",
        "coordinates": [
          -8.3615721,
          40.2225383
        ]
      },
      "properties": {
        "title": "osm-10309165335-10309165346-d242fd8f93 downstream",
        "marker-color": "#dc2626"
      }
    },
    {
      "type": "Feature",
      "geometry": {
        "type": "LineString",
        "coordinates": [
          [
            -8.3698653,
            40.2129539
          ],
          [
            -8.370037,
            40.2123148
          ],
          [
            -8.3701657,
            40.211643
          ],
          [
            -8.3702945,
            40.2111022
          ],
          [
            -8.3704876,
            40.2105123
          ],
          [
            -8.370501,
            40.2102558
          ],
          [
            -8.3704421,
            40.210124
          ],
          [
            -8.3704461,
            40.2101015
          ],
          [
            -8.3701013,
            40.2097258
          ],
          [
            -8.3694791,
            40.2092669
          ],
          [
            -8.3692859,
            40.2090211
          ],
          [
            -8.3690714,
            40.2082673
          ],
          [
            -8.368728,
            40.206858
          ],
          [
            -8.3684062,
            40.2063172
          ],
          [
            -8.3678268,
            40.2051536
          ],
          [
            -8.3674406,
            40.2045964
          ],
          [
            -8.3669041,
            40.203859
          ]
        ]
      },
      "properties": {
        "id": "osm-10309165347-10309165361-4f44729b43",
        "name": "Unnamed stream",
        "stroke": "#60a5fa",
        "stroke-width": 3
      }
    },
    {
      "type": "Feature",
      "geometry": {
        "type": "Point",
        "coordinates": [
          -8.3698653,
          40.2129539
        ]
      },
      "properties": {
        "title": "osm-10309165347-10309165361-4f44729b43 upstream",
        "marker-color": "#16a34a"
      }
    },
    {
      "type": "Feature",
      "geometry": {
        "type": "Point",
        "coordinates": [
          -8.3669041,
          40.203859
        ]
      },
      "properties": {
        "title": "osm-10309165347-10309165361-4f44729b43 downstream",
        "marker-color": "#dc2626"
      }
    },
    {
      "type": "Feature",
      "geometry": {
        "type": "LineString",
        "coordinates": [
          [
            -8.3669041,
            40.203859
          ],
          [
            -8.3661326,
            40.202913
          ]
        ]
      },
      "properties": {
        "id": "osm-10309165361-10309165362-98ed28b2c7",
        "name": "Unnamed stream",
        "stroke": "#60a5fa",
        "stroke-width": 3
      }
    },
    {
      "type": "Feature",
      "geometry": {
        "type": "Point",
        "coordinates": [
          -8.3669041,
          40.203859
        ]
      },
      "properties": {
        "title": "osm-10309165361-10309165362-98ed28b2c7 upstream",
        "marker-color": "#16a34a"
      }
    },
    {
      "type": "Feature",
      "geometry": {
        "type": "Point",
        "coordinates": [
          -8.3661326,
          40.202913
        ]
      },
      "properties": {
        "title": "osm-10309165361-10309165362-98ed28b2c7 downstream",
        "marker-color": "#dc2626"
      }
    },
    {
      "type": "Feature",
      "geometry": {
        "type": "LineString",
        "coordinates": [
          [
            -8.3764099,
            40.2052192
          ],
          [
            -8.3767747,
            40.2047439
          ],
          [
            -8.3769249,
            40.204367
          ],
          [
            -8.376882,
            40.204154
          ],
          [
            -8.3768501,
            40.2039672
          ],
          [
            -8.3768317,
            40.2038598
          ],
          [
            -8.3767532,
            40.2034001
          ],
          [
            -8.3767961,
            40.2026298
          ],
          [
            -8.3756374,
            40.2004009
          ],
          [
            -8.3753799,
            40.1997126
          ],
          [
            -8.3751291,
            40.1993559
          ],
          [
            -8.3750622,
            40.1992607
          ],
          [
            -8.3747577,
            40.1988276
          ],
          [
            -8.37435,
            40.1980409
          ]
        ]
      },
      "properties": {
        "id": "osm-10309165363-10309165372-b948c4743d",
        "name": "Unnamed stream",
        "stroke": "#60a5fa",
        "stroke-width": 3
      }
    },
    {
      "type": "Feature",
      "geometry": {
        "type": "Point",
        "coordinates": [
          -8.3764099,
          40.2052192
        ]
      },
      "properties": {
        "title": "osm-10309165363-10309165372-b948c4743d upstream",
        "marker-color": "#16a34a"
      }
    },
    {
      "type": "Feature",
      "geometry": {
        "type": "Point",
        "coordinates": [
          -8.37435,
          40.1980409
        ]
      },
      "properties": {
        "title": "osm-10309165363-10309165372-b948c4743d downstream",
        "marker-color": "#dc2626"
      }
    },
    {
      "type": "Feature",
      "geometry": {
        "type": "LineString",
        "coordinates": [
          [
            -8.37435,
            40.1980409
          ],
          [
            -8.3741621,
            40.1972504
          ]
        ]
      },
      "properties": {
        "id": "osm-10309165372-10309165373-c830b3c1cc",
        "name": "Unnamed stream",
        "stroke": "#60a5fa",
        "stroke-width": 3
      }
    },
    {
      "type": "Feature",
      "geometry": {
        "type": "Point",
        "coordinates": [
          -8.37435,
          40.1980409
        ]
      },
      "properties": {
        "title": "osm-10309165372-10309165373-c830b3c1cc upstream",
        "marker-color": "#16a34a"
      }
    },
    {
      "type": "Feature",
      "geometry": {
        "type": "Point",
        "coordinates": [
          -8.3741621,
          40.1972504
        ]
      },
      "properties": {
        "title": "osm-10309165372-10309165373-c830b3c1cc downstream",
        "marker-color": "#dc2626"
      }
    },
    {
      "type": "Feature",
      "geometry": {
        "type": "LineString",
        "coordinates": [
          [
            -8.3769893,
            40.1860589
          ],
          [
            -8.3775901,
            40.1859277
          ],
          [
            -8.3788775,
            40.1859114
          ],
          [
            -8.3799504,
            40.1860261
          ],
          [
            -8.38068,
            40.1862392
          ],
          [
            -8.3820894,
            40.1869626
          ],
          [
            -8.3823835,
            40.1870869
          ],
          [
            -8.3825621,
            40.1871169
          ],
          [
            -8.3830403,
            40.1875014
          ],
          [
            -8.3839415,
            40.1881735
          ],
          [
            -8.3845209,
            40.1886653
          ],
          [
            -8.3847998,
            40.1889439
          ],
          [
            -8.3848917,
            40.1892714
          ],
          [
            -8.384993,
            40.1896324
          ],
          [
            -8.3855509,
            40.1907306
          ]
        ]
      },
      "properties": {
        "id": "osm-10309165374-10309165385-2ad0a20494",
        "name": "Unnamed stream",
        "stroke": "#60a5fa",
        "stroke-width": 3
      }
    },
    {
      "type": "Feature",
      "geometry": {
        "type": "Point",
        "coordinates": [
          -8.3769893,
          40.1860589
        ]
      },
      "properties": {
        "title": "osm-10309165374-10309165385-2ad0a20494 upstream",
        "marker-color": "#16a34a"
      }
    },
    {
      "type": "Feature",
      "geometry": {
        "type": "Point",
        "coordinates": [
          -8.3855509,
          40.1907306
        ]
      },
      "properties": {
        "title": "osm-10309165374-10309165385-2ad0a20494 downstream",
        "marker-color": "#dc2626"
      }
    },
    {
      "type": "Feature",
      "geometry": {
        "type": "LineString",
        "coordinates": [
          [
            -8.3855509,
            40.1907306
          ],
          [
            -8.3861689,
            40.1913418
          ]
        ]
      },
      "properties": {
        "id": "osm-10309165385-251615232-4801a24acd",
        "name": "Unnamed stream",
        "stroke": "#60a5fa",
        "stroke-width": 3
      }
    },
    {
      "type": "Feature",
      "geometry": {
        "type": "Point",
        "coordinates": [
          -8.3855509,
          40.1907306
        ]
      },
      "properties": {
        "title": "osm-10309165385-251615232-4801a24acd upstream",
        "marker-color": "#16a34a"
      }
    },
    {
      "type": "Feature",
      "geometry": {
        "type": "Point",
        "coordinates": [
          -8.3861689,
          40.1913418
        ]
      },
      "properties": {
        "title": "osm-10309165385-251615232-4801a24acd downstream",
        "marker-color": "#dc2626"
      }
    },
    {
      "type": "Feature",
      "geometry": {
        "type": "LineString",
        "coordinates": [
          [
            -8.3466757,
            40.2011254
          ],
          [
            -8.3472278,
            40.2010605
          ],
          [
            -8.3477233,
            40.2010497
          ],
          [
            -8.3482329,
            40.2010929
          ],
          [
            -8.3487143,
            40.2012335
          ],
          [
            -8.3492664,
            40.2014497
          ],
          [
            -8.3495637,
            40.2017201
          ],
          [
            -8.3500309,
            40.2020769
          ],
          [
            -8.3503423,
            40.2023364
          ],
          [
            -8.3509369,
            40.2026283
          ],
          [
            -8.3517863,
            40.2028337
          ],
          [
            -8.3522818,
            40.2030716
          ],
          [
            -8.352664,
            40.2036339
          ],
          [
            -8.3528481,
            40.2041096
          ],
          [
            -8.3531737,
            40.2044448
          ],
          [
            -8.3534426,
            40.2047475
          ],
          [
            -8.3536975,
            40.2049638
          ]
        ]
      },
      "properties": {
        "id": "osm-10570263955-10570263971-02a014a7a1",
        "name": "Unnamed stream",
        "stroke": "#60a5fa",
        "stroke-width": 3
      }
    },
    {
      "type": "Feature",
      "geometry": {
        "type": "Point",
        "coordinates": [
          -8.3466757,
          40.2011254
        ]
      },
      "properties": {
        "title": "osm-10570263955-10570263971-02a014a7a1 upstream",
        "marker-color": "#16a34a"
      }
    },
    {
      "type": "Feature",
      "geometry": {
        "type": "Point",
        "coordinates": [
          -8.3536975,
          40.2049638
        ]
      },
      "properties": {
        "title": "osm-10570263955-10570263971-02a014a7a1 downstream",
        "marker-color": "#dc2626"
      }
    },
    {
      "type": "Feature",
      "geometry": {
        "type": "LineString",
        "coordinates": [
          [
            -8.3536975,
            40.2049638
          ],
          [
            -8.3544271,
            40.2053341
          ]
        ]
      },
      "properties": {
        "id": "osm-10570263971-10570263972-8d98361542",
        "name": "Unnamed stream",
        "stroke": "#60a5fa",
        "stroke-width": 3
      }
    },
    {
      "type": "Feature",
      "geometry": {
        "type": "Point",
        "coordinates": [
          -8.3536975,
          40.2049638
        ]
      },
      "properties": {
        "title": "osm-10570263971-10570263972-8d98361542 upstream",
        "marker-color": "#16a34a"
      }
    },
    {
      "type": "Feature",
      "geometry": {
        "type": "Point",
        "coordinates": [
          -8.3544271,
          40.2053341
        ]
      },
      "properties": {
        "title": "osm-10570263971-10570263972-8d98361542 downstream",
        "marker-color": "#dc2626"
      }
    },
    {
      "type": "Feature",
      "geometry": {
        "type": "LineString",
        "coordinates": [
          [
            -8.3414943,
            40.1984654
          ],
          [
            -8.3418765,
            40.1983789
          ],
          [
            -8.3422446,
            40.198314
          ],
          [
            -8.3427118,
            40.198022
          ],
          [
            -8.3434338,
            40.1972543
          ],
          [
            -8.3438585,
            40.1969623
          ],
          [
            -8.3448495,
            40.196865
          ],
          [
            -8.3455432,
            40.1970597
          ],
          [
            -8.3466049,
            40.19733
          ],
          [
            -8.3481763,
            40.1978707
          ],
          [
            -8.3486293,
            40.1979572
          ],
          [
            -8.3493655,
            40.197849
          ],
          [
            -8.3513616,
            40.1976219
          ],
          [
            -8.3524941,
            40.1972435
          ],
          [
            -8.3530373,
            40.1970194
          ],
          [
            -8.3536382,
            40.1967571
          ],
          [
            -8.3556981,
            40.1963474
          ],
          [
            -8.357007,
            40.1961671
          ],
          [
            -8.3584018,
            40.1962654
          ],
          [
            -8.3603115,
            40.1967899
          ],
          [
            -8.3612127,
            40.1971833
          ],
          [
            -8.3622641,
            40.1971833
          ],
          [
            -8.362822,
            40.1971669
          ],
          [
            -8.3640237,
            40.1973308
          ],
          [
            -8.3644872,
            40.1975202
          ],
          [
            -8.3647398,
            40.1976098
          ],
          [
            -8.3653326,
            40.1977569
          ],
          [
            -8.3662123,
            40.198183
          ],
          [
            -8.3673281,
            40.1982486
          ],
          [
            -8.3682508,
            40.1984617
          ],
          [
            -8.36868,
            40.1986092
          ],
          [
            -8.3688321,
            40.1986569
          ]
        ]
      },
      "properties": {
        "id": "osm-10570263986-10221430596-a3d3c505cc",
        "name": "Unnamed stream",
        "stroke": "#60a5fa",
        "stroke-width": 3
      }
    },
    {
      "type": "Feature",
      "geometry": {
        "type": "Point",
        "coordinates": [
          -8.3414943,
          40.1984654
        ]
      },
      "properties": {
        "title": "osm-10570263986-10221430596-a3d3c505cc upstream",
        "marker-color": "#16a34a"
      }
    },
    {
      "type": "Feature",
      "geometry": {
        "type": "Point",
        "coordinates": [
          -8.3688321,
          40.1986569
        ]
      },
      "properties": {
        "title": "osm-10570263986-10221430596-a3d3c505cc downstream",
        "marker-color": "#dc2626"
      }
    },
    {
      "type": "Feature",
      "geometry": {
        "type": "LineString",
        "coordinates": [
          [
            -8.3688321,
            40.1986569
          ],
          [
            -8.3691312,
            40.1987062
          ]
        ]
      },
      "properties": {
        "id": "osm-10221430596-251615210-138331553c",
        "name": "Unnamed stream",
        "stroke": "#60a5fa",
        "stroke-width": 3
      }
    },
    {
      "type": "Feature",
      "geometry": {
        "type": "Point",
        "coordinates": [
          -8.3688321,
          40.1986569
        ]
      },
      "properties": {
        "title": "osm-10221430596-251615210-138331553c upstream",
        "marker-color": "#16a34a"
      }
    },
    {
      "type": "Feature",
      "geometry": {
        "type": "Point",
        "coordinates": [
          -8.3691312,
          40.1987062
        ]
      },
      "properties": {
        "title": "osm-10221430596-251615210-138331553c downstream",
        "marker-color": "#dc2626"
      }
    },
    {
      "type": "Feature",
      "geometry": {
        "type": "LineString",
        "coordinates": [
          [
            -8.3543247,
            40.2053995
          ],
          [
            -8.3544271,
            40.2053341
          ]
        ]
      },
      "properties": {
        "id": "osm-251615191-10570263972-ca82ab8bcc",
        "name": "Rio Mondego",
        "stroke": "#1e3a8a",
        "stroke-width": 3
      }
    },
    {
      "type": "Feature",
      "geometry": {
        "type": "Point",
        "coordinates": [
          -8.3543247,
          40.2053995
        ]
      },
      "properties": {
        "title": "osm-251615191-10570263972-ca82ab8bcc upstream",
        "marker-color": "#16a34a"
      }
    },
    {
      "type": "Feature",
      "geometry": {
        "type": "Point",
        "coordinates": [
          -8.3544271,
          40.2053341
        ]
      },
      "properties": {
        "title": "osm-251615191-10570263972-ca82ab8bcc downstream",
        "marker-color": "#dc2626"
      }
    },
    {
      "type": "Feature",
      "geometry": {
        "type": "LineString",
        "coordinates": [
          [
            -8.3544271,
            40.2053341
          ],
          [
            -8.3549515,
            40.2049991
          ]
        ]
      },
      "properties": {
        "id": "osm-10570263972-251615192-231288b021",
        "name": "Rio Mondego",
        "stroke": "#1e3a8a",
        "stroke-width": 3
      }
    },
    {
      "type": "Feature",
      "geometry": {
        "type": "Point",
        "coordinates": [
          -8.3544271,
          40.2053341
        ]
      },
      "properties": {
        "title": "osm-10570263972-251615192-231288b021 upstream",
        "marker-color": "#16a34a"
      }
    },
    {
      "type": "Feature",
      "geometry": {
        "type": "Point",
        "coordinates": [
          -8.3549515,
          40.2049991
        ]
      },
      "properties": {
        "title": "osm-10570263972-251615192-231288b021 downstream",
        "marker-color": "#dc2626"
      }
    },
    {
      "type": "Feature",
      "geometry": {
        "type": "LineString",
        "coordinates": [
          [
            -8.3549515,
            40.2049991
          ],
          [
            -8.3556194,
            40.2047742
          ],
          [
            -8.3564954,
            40.2045948
          ],
          [
            -8.3574181,
            40.2045771
          ],
          [
            -8.3586969,
            40.2046873
          ],
          [
            -8.3600037,
            40.204789
          ],
          [
            -8.3605373,
            40.2047624
          ]
        ]
      },
      "properties": {
        "id": "osm-251615192-8414686363-a43dfc3648",
        "name": "Rio Mondego",
        "stroke": "#1e3a8a",
        "stroke-width": 3
      }
    },
    {
      "type": "Feature",
      "geometry": {
        "type": "Point",
        "coordinates": [
          -8.3549515,
          40.2049991
        ]
      },
      "properties": {
        "title": "osm-251615192-8414686363-a43dfc3648 upstream",
        "marker-color": "#16a34a"
      }
    },
    {
      "type": "Feature",
      "geometry": {
        "type": "Point",
        "coordinates": [
          -8.3605373,
          40.2047624
        ]
      },
      "properties": {
        "title": "osm-251615192-8414686363-a43dfc3648 downstream",
        "marker-color": "#dc2626"
      }
    },
    {
      "type": "Feature",
      "geometry": {
        "type": "LineString",
        "coordinates": [
          [
            -8.3695053,
            40.2300884
          ],
          [
            -8.3692505,
            40.2296777
          ],
          [
            -8.3686842,
            40.2294075
          ],
          [
            -8.3679481,
            40.2291913
          ],
          [
            -8.3671695,
            40.2289644
          ],
          [
            -8.3663201,
            40.228813
          ],
          [
            -8.3656688,
            40.2286941
          ],
          [
            -8.3650035,
            40.2283591
          ],
          [
            -8.3646071,
            40.2277214
          ],
          [
            -8.3642673,
            40.2272026
          ],
          [
            -8.3634887,
            40.226727
          ],
          [
            -8.3627384,
            40.2261433
          ],
          [
            -8.3620876,
            40.2247834
          ],
          [
            -8.3621645,
            40.224614
          ],
          [
            -8.3622022,
            40.2244681
          ],
          [
            -8.3621842,
            40.2243069
          ],
          [
            -8.3620872,
            40.2242194
          ],
          [
            -8.3618324,
            40.2239167
          ],
          [
            -8.3616393,
            40.2230731
          ],
          [
            -8.3615721,
            40.2225383
          ]
        ]
      },
      "properties": {
        "id": "osm-8414687023-10309165346-282255d3dd",
        "name": "Ribeira de Misarela",
        "stroke": "#60a5fa",
        "stroke-width": 3
      }
    },
    {
      "type": "Feature",
      "geometry": {
        "type": "Point",
        "coordinates": [
          -8.3695053,
          40.2300884
        ]
      },
      "properties": {
        "title": "osm-8414687023-10309165346-282255d3dd upstream",
        "marker-color": "#16a34a"
      }
    },
    {
      "type": "Feature",
      "geometry": {
        "type": "Point",
        "coordinates": [
          -8.3615721,
          40.2225383
        ]
      },
      "properties": {
        "title": "osm-8414687023-10309165346-282255d3dd downstream",
        "marker-color": "#dc2626"
      }
    },
    {
      "type": "Feature",
      "geometry": {
        "type": "LineString",
        "coordinates": [
          [
            -8.3615721,
            40.2225383
          ],
          [
            -8.3615085,
            40.2220319
          ],
          [
            -8.3615085,
            40.2214899
          ],
          [
            -8.3615646,
            40.2208053
          ]
        ]
      },
      "properties": {
        "id": "osm-10309165346-8414686405-a07785d6eb",
        "name": "Ribeira de Misarela",
        "stroke": "#60a5fa",
        "stroke-width": 3
      }
    },
    {
      "type": "Feature",
      "geometry": {
        "type": "Point",
        "coordinates": [
          -8.3615721,
          40.2225383
        ]
      },
      "properties": {
        "title": "osm-10309165346-8414686405-a07785d6eb upstream",
        "marker-color": "#16a34a"
      }
    },
    {
      "type": "Feature",
      "geometry": {
        "type": "Point",
        "coordinates": [
          -8.3615646,
          40.2208053
        ]
      },
      "properties": {
        "title": "osm-10309165346-8414686405-a07785d6eb downstream",
        "marker-color": "#dc2626"
      }
    },
    {
      "type": "Feature",
      "geometry": {
        "type": "LineString",
        "coordinates": [
          [
            -8.3718103,
            40.2190811
          ],
          [
            -8.3713714,
            40.2196216
          ],
          [
            -8.37106,
            40.2202053
          ],
          [
            -8.3707627,
            40.2206377
          ],
          [
            -8.3704937,
            40.2212754
          ],
          [
            -8.3702105,
            40.2217186
          ],
          [
            -8.3695735,
            40.2221294
          ],
          [
            -8.3687666,
            40.2223564
          ],
          [
            -8.3681578,
            40.2223888
          ],
          [
            -8.3679187,
            40.222331
          ]
        ]
      },
      "properties": {
        "id": "osm-8414687024-8414687054-caf7376955",
        "name": "Unnamed stream",
        "stroke": "#60a5fa",
        "stroke-width": 3
      }
    },
    {
      "type": "Feature",
      "geometry": {
        "type": "Point",
        "coordinates": [
          -8.3718103,
          40.2190811
        ]
      },
      "properties": {
        "title": "osm-8414687024-8414687054-caf7376955 upstream",
        "marker-color": "#16a34a"
      }
    },
    {
      "type": "Feature",
      "geometry": {
        "type": "Point",
        "coordinates": [
          -8.3679187,
          40.222331
        ]
      },
      "properties": {
        "title": "osm-8414687024-8414687054-caf7376955 downstream",
        "marker-color": "#dc2626"
      }
    },
    {
      "type": "Feature",
      "geometry": {
        "type": "LineString",
        "coordinates": [
          [
            -8.3732543,
            40.225999
          ],
          [
            -8.3727871,
            40.2256099
          ],
          [
            -8.3722491,
            40.2254802
          ],
          [
            -8.3717678,
            40.2255126
          ],
          [
            -8.371513,
            40.225437
          ],
          [
            -8.3713431,
            40.2252316
          ],
          [
            -8.3711307,
            40.2249289
          ],
          [
            -8.3708476,
            40.2246803
          ],
          [
            -8.3704371,
            40.2244209
          ],
          [
            -8.3698708,
            40.2242047
          ],
          [
            -8.3694744,
            40.2241183
          ],
          [
            -8.3691205,
            40.2238913
          ],
          [
            -8.368894,
            40.2232643
          ],
          [
            -8.3684693,
            40.2228104
          ],
          [
            -8.3680587,
            40.2225293
          ],
          [
            -8.3679187,
            40.222331
          ]
        ]
      },
      "properties": {
        "id": "osm-8414687039-8414687054-97b63a4af0",
        "name": "Unnamed stream",
        "stroke": "#60a5fa",
        "stroke-width": 3
      }
    },
    {
      "type": "Feature",
      "geometry": {
        "type": "Point",
        "coordinates": [
          -8.3732543,
          40.225999
        ]
      },
      "properties": {
        "title": "osm-8414687039-8414687054-97b63a4af0 upstream",
        "marker-color": "#16a34a"
      }
    },
    {
      "type": "Feature",
      "geometry": {
        "type": "Point",
        "coordinates": [
          -8.3679187,
          40.222331
        ]
      },
      "properties": {
        "title": "osm-8414687039-8414687054-97b63a4af0 downstream",
        "marker-color": "#dc2626"
      }
    },
    {
      "type": "Feature",
      "geometry": {
        "type": "LineString",
        "coordinates": [
          [
            -8.3679187,
            40.222331
          ],
          [
            -8.366459,
            40.221978
          ],
          [
            -8.365015,
            40.2215565
          ],
          [
            -8.3637551,
            40.2214376
          ],
          [
            -8.3632312,
            40.2212754
          ],
          [
            -8.3623394,
            40.2211025
          ],
          [
            -8.3619713,
            40.2209944
          ],
          [
            -8.3615646,
            40.2208053
          ]
        ]
      },
      "properties": {
        "id": "osm-8414687054-8414686405-ea4e054865",
        "name": "Unnamed stream",
        "stroke": "#60a5fa",
        "stroke-width": 3
      }
    },
    {
      "type": "Feature",
      "geometry": {
        "type": "Point",
        "coordinates": [
          -8.3679187,
          40.222331
        ]
      },
      "properties": {
        "title": "osm-8414687054-8414686405-ea4e054865 upstream",
        "marker-color": "#16a34a"
      }
    },
    {
      "type": "Feature",
      "geometry": {
        "type": "Point",
        "coordinates": [
          -8.3615646,
          40.2208053
        ]
      },
      "properties": {
        "title": "osm-8414687054-8414686405-ea4e054865 downstream",
        "marker-color": "#dc2626"
      }
    },
    {
      "type": "Feature",
      "geometry": {
        "type": "LineString",
        "coordinates": [
          [
            -8.3615646,
            40.2208053
          ],
          [
            -8.3612096,
            40.2202918
          ],
          [
            -8.3598834,
            40.2186943
          ],
          [
            -8.3593977,
            40.2180952
          ],
          [
            -8.3593591,
            40.2175548
          ]
        ]
      },
      "properties": {
        "id": "osm-8414686405-8414687060-8a34db1c43",
        "name": "Ribeira de Misarela",
        "stroke": "#60a5fa",
        "stroke-width": 3
      }
    },
    {
      "type": "Feature",
      "geometry": {
        "type": "Point",
        "coordinates": [
          -8.3615646,
          40.2208053
        ]
      },
      "properties": {
        "title": "osm-8414686405-8414687060-8a34db1c43 upstream",
        "marker-color": "#16a34a"
      }
    },
    {
      "type": "Feature",
      "geometry": {
        "type": "Point",
        "coordinates": [
          -8.3593591,
          40.2175548
        ]
      },
      "properties": {
        "title": "osm-8414686405-8414687060-8a34db1c43 downstream",
        "marker-color": "#dc2626"
      }
    },
    {
      "type": "Feature",
      "geometry": {
        "type": "LineString",
        "coordinates": [
          [
            -8.3541851,
            40.2199675
          ],
          [
            -8.3546664,
            40.2194594
          ],
          [
            -8.3558839,
            40.2186054
          ],
          [
            -8.357795,
            40.218173
          ],
          [
            -8.3584463,
            40.217892
          ],
          [
            -8.3593591,
            40.2175548
          ]
        ]
      },
      "properties": {
        "id": "osm-8414687055-8414687060-07ec57fb6a",
        "name": "Unnamed stream",
        "stroke": "#60a5fa",
        "stroke-width": 3
      }
    },
    {
      "type": "Feature",
      "geometry": {
        "type": "Point",
        "coordinates": [
          -8.3541851,
          40.2199675
        ]
      },
      "properties": {
        "title": "osm-8414687055-8414687060-07ec57fb6a upstream",
        "marker-color": "#16a34a"
      }
    },
    {
      "type": "Feature",
      "geometry": {
        "type": "Point",
        "coordinates": [
          -8.3593591,
          40.2175548
        ]
      },
      "properties": {
        "title": "osm-8414687055-8414687060-07ec57fb6a downstream",
        "marker-color": "#dc2626"
      }
    },
    {
      "type": "Feature",
      "geometry": {
        "type": "LineString",
        "coordinates": [
          [
            -8.3593591,
            40.2175548
          ],
          [
            -8.3593416,
            40.2173107
          ],
          [
            -8.3600888,
            40.2167116
          ],
          [
            -8.3604064,
            40.2165832
          ],
          [
            -8.3605558,
            40.2163122
          ]
        ]
      },
      "properties": {
        "id": "osm-8414687060-8414686398-bba3c2517d",
        "name": "Ribeira de Misarela",
        "stroke": "#60a5fa",
        "stroke-width": 3
      }
    },
    {
      "type": "Feature",
      "geometry": {
        "type": "Point",
        "coordinates": [
          -8.3593591,
          40.2175548
        ]
      },
      "properties": {
        "title": "osm-8414687060-8414686398-bba3c2517d upstream",
        "marker-color": "#16a34a"
      }
    },
    {
      "type": "Feature",
      "geometry": {
        "type": "Point",
        "coordinates": [
          -8.3605558,
          40.2163122
        ]
      },
      "properties": {
        "title": "osm-8414687060-8414686398-bba3c2517d downstream",
        "marker-color": "#dc2626"
      }
    },
    {
      "type": "Feature",
      "geometry": {
        "type": "LineString",
        "coordinates": [
          [
            -8.3713856,
            40.2159786
          ],
          [
            -8.3708476,
            40.2163245
          ],
          [
            -8.3703663,
            40.2165191
          ],
          [
            -8.3695593,
            40.216692
          ],
          [
            -8.3687524,
            40.2168218
          ],
          [
            -8.3678464,
            40.2168326
          ],
          [
            -8.3669545,
            40.2167029
          ],
          [
            -8.3663882,
            40.216692
          ],
          [
            -8.3644204,
            40.2168434
          ],
          [
            -8.3635144,
            40.2168974
          ],
          [
            -8.3627641,
            40.2168866
          ],
          [
            -8.3620562,
            40.2169515
          ],
          [
            -8.3613059,
            40.2168001
          ],
          [
            -8.3608671,
            40.2165191
          ],
          [
            -8.3605558,
            40.2163122
          ]
        ]
      },
      "properties": {
        "id": "osm-8414687061-8414686398-21a6e82a17",
        "name": "Unnamed stream",
        "stroke": "#60a5fa",
        "stroke-width": 3
      }
    },
    {
      "type": "Feature",
      "geometry": {
        "type": "Point",
        "coordinates": [
          -8.3713856,
          40.2159786
        ]
      },
      "properties": {
        "title": "osm-8414687061-8414686398-21a6e82a17 upstream",
        "marker-color": "#16a34a"
      }
    },
    {
      "type": "Feature",
      "geometry": {
        "type": "Point",
        "coordinates": [
          -8.3605558,
          40.2163122
        ]
      },
      "properties": {
        "title": "osm-8414687061-8414686398-21a6e82a17 downstream",
        "marker-color": "#dc2626"
      }
    },
    {
      "type": "Feature",
      "geometry": {
        "type": "LineString",
        "coordinates": [
          [
            -8.3605558,
            40.2163122
          ],
          [
            -8.3604377,
            40.2155806
          ],
          [
            -8.3603536,
            40.2150884
          ],
          [
            -8.3601668,
            40.2148602
          ],
          [
            -8.359952,
            40.2146962
          ],
          [
            -8.3599333,
            40.2145107
          ],
          [
            -8.3599987,
            40.2142397
          ],
          [
            -8.3598306,
            40.2138688
          ],
          [
            -8.3595362,
            40.2136145
          ],
          [
            -8.3591048,
            40.213511
          ],
          [
            -8.3584246,
            40.2135594
          ],
          [
            -8.3581295,
            40.2135062
          ],
          [
            -8.3578452,
            40.2133341
          ],
          [
            -8.3577808,
            40.2131334
          ],
          [
            -8.357872,
            40.2128139
          ],
          [
            -8.3579364,
            40.2125763
          ],
          [
            -8.3581027,
            40.2124083
          ],
          [
            -8.358843,
            40.2120437
          ],
          [
            -8.3590629,
            40.211716
          ],
          [
            -8.3591756,
            40.2113883
          ],
          [
            -8.3594151,
            40.2108078
          ],
          [
            -8.3595461,
            40.2105727
          ],
          [
            -8.3597266,
            40.2103592
          ],
          [
            -8.3598575,
            40.2102078
          ],
          [
            -8.3598505,
            40.2099727
          ],
          [
            -8.3598434,
            40.2097375
          ],
          [
            -8.3598788,
            40.2095564
          ],
          [
            -8.3599283,
            40.2094159
          ],
          [
            -8.3599814,
            40.209324
          ],
          [
            -8.3599531,
            40.2090942
          ],
          [
            -8.3599438,
            40.2089387
          ],
          [
            -8.3599354,
            40.2087969
          ],
          [
            -8.3599307,
            40.2086551
          ],
          [
            -8.3598168,
            40.2084502
          ],
          [
            -8.3597762,
            40.2082825
          ],
          [
            -8.3598077,
            40.2080379
          ],
          [
            -8.3598105,
            40.207627
          ],
          [
            -8.359798,
            40.207396
          ],
          [
            -8.3597647,
            40.2073182
          ],
          [
            -8.3597203,
            40.2072144
          ],
          [
            -8.3597068,
            40.207183
          ],
          [
            -8.3595781,
            40.2070027
          ],
          [
            -8.3595942,
            40.2068142
          ],
          [
            -8.3596747,
            40.2066176
          ],
          [
            -8.3599375,
            40.2062161
          ],
          [
            -8.3600984,
            40.2059703
          ],
          [
            -8.3601351,
            40.2058252
          ],
          [
            -8.3601472,
            40.20574
          ],
          [
            -8.3601974,
            40.2056588
          ],
          [
            -8.3602379,
            40.2055934
          ],
          [
            -8.3603345,
            40.2052205
          ],
          [
            -8.3603774,
            40.2050689
          ]
        ]
      },
      "properties": {
        "id": "osm-8414686398-8414686362-f51df2e704",
        "name": "Ribeira de Misarela",
        "stroke": "#60a5fa",
        "stroke-width": 3
      }
    },
    {
      "type": "Feature",
      "geometry": {
        "type": "Point",
        "coordinates": [
          -8.3605558,
          40.2163122
        ]
      },
      "properties": {
        "title": "osm-8414686398-8414686362-f51df2e704 upstream",
        "marker-color": "#16a34a"
      }
    },
    {
      "type": "Feature",
      "geometry": {
        "type": "Point",
        "coordinates": [
          -8.3603774,
          40.2050689
        ]
      },
      "properties": {
        "title": "osm-8414686398-8414686362-f51df2e704 downstream",
        "marker-color": "#dc2626"
      }
    },
    {
      "type": "Feature",
      "geometry": {
        "type": "LineString",
        "coordinates": [
          [
            -8.3603774,
            40.2050689
          ],
          [
            -8.3605373,
            40.2047624
          ]
        ]
      },
      "properties": {
        "id": "osm-8414686362-8414686363-9dcf0af932",
        "name": "Ribeira de Misarela",
        "stroke": "#60a5fa",
        "stroke-width": 3
      }
    },
    {
      "type": "Feature",
      "geometry": {
        "type": "Point",
        "coordinates": [
          -8.3603774,
          40.2050689
        ]
      },
      "properties": {
        "title": "osm-8414686362-8414686363-9dcf0af932 upstream",
        "marker-color": "#16a34a"
      }
    },
    {
      "type": "Feature",
      "geometry": {
        "type": "Point",
        "coordinates": [
          -8.3605373,
          40.2047624
        ]
      },
      "properties": {
        "title": "osm-8414686362-8414686363-9dcf0af932 downstream",
        "marker-color": "#dc2626"
      }
    },
    {
      "type": "Feature",
      "geometry": {
        "type": "LineString",
        "coordinates": [
          [
            -8.3605373,
            40.2047624
          ],
          [
            -8.361458,
            40.2047164
          ]
        ]
      },
      "properties": {
        "id": "osm-8414686363-251615198-f0d664e8dc",
        "name": "Rio Mondego",
        "stroke": "#1e3a8a",
        "stroke-width": 3
      }
    },
    {
      "type": "Feature",
      "geometry": {
        "type": "Point",
        "coordinates": [
          -8.3605373,
          40.2047624
        ]
      },
      "properties": {
        "title": "osm-8414686363-251615198-f0d664e8dc upstream",
        "marker-color": "#16a34a"
      }
    },
    {
      "type": "Feature",
      "geometry": {
        "type": "Point",
        "coordinates": [
          -8.361458,
          40.2047164
        ]
      },
      "properties": {
        "title": "osm-8414686363-251615198-f0d664e8dc downstream",
        "marker-color": "#dc2626"
      }
    },
    {
      "type": "Feature",
      "geometry": {
        "type": "LineString",
        "coordinates": [
          [
            -8.361458,
            40.2047164
          ],
          [
            -8.3634829,
            40.2044686
          ],
          [
            -8.3643927,
            40.2042523
          ],
          [
            -8.3651737,
            40.2039311
          ],
          [
            -8.3658175,
            40.2034657
          ],
          [
            -8.3661326,
            40.202913
          ]
        ]
      },
      "properties": {
        "id": "osm-251615198-10309165362-03a6db0131",
        "name": "Rio Mondego",
        "stroke": "#1e3a8a",
        "stroke-width": 3
      }
    },
    {
      "type": "Feature",
      "geometry": {
        "type": "Point",
        "coordinates": [
          -8.361458,
          40.2047164
        ]
      },
      "properties": {
        "title": "osm-251615198-10309165362-03a6db0131 upstream",
        "marker-color": "#16a34a"
      }
    },
    {
      "type": "Feature",
      "geometry": {
        "type": "Point",
        "coordinates": [
          -8.3661326,
          40.202913
        ]
      },
      "properties": {
        "title": "osm-251615198-10309165362-03a6db0131 downstream",
        "marker-color": "#dc2626"
      }
    },
    {
      "type": "Feature",
      "geometry": {
        "type": "LineString",
        "coordinates": [
          [
            -8.3661326,
            40.202913
          ],
          [
            -8.3662259,
            40.2027494
          ],
          [
            -8.3664358,
            40.2024003
          ],
          [
            -8.3667479,
            40.2018812
          ],
          [
            -8.3671389,
            40.2011032
          ],
          [
            -8.3673406,
            40.2003956
          ],
          [
            -8.3675681,
            40.1998252
          ],
          [
            -8.3676894,
            40.199558
          ],
          [
            -8.3681621,
            40.1990971
          ],
          [
            -8.3691312,
            40.1987062
          ]
        ]
      },
      "properties": {
        "id": "osm-10309165362-251615210-04cef5484b",
        "name": "Rio Mondego",
        "stroke": "#1e3a8a",
        "stroke-width": 3
      }
    },
    {
      "type": "Feature",
      "geometry": {
        "type": "Point",
        "coordinates": [
          -8.3661326,
          40.202913
        ]
      },
      "properties": {
        "title": "osm-10309165362-251615210-04cef5484b upstream",
        "marker-color": "#16a34a"
      }
    },
    {
      "type": "Feature",
      "geometry": {
        "type": "Point",
        "coordinates": [
          -8.3691312,
          40.1987062
        ]
      },
      "properties": {
        "title": "osm-10309165362-251615210-04cef5484b downstream",
        "marker-color": "#dc2626"
      }
    },
    {
      "type": "Feature",
      "geometry": {
        "type": "LineString",
        "coordinates": [
          [
            -8.3691312,
            40.1987062
          ],
          [
            -8.3696925,
            40.1983923
          ]
        ]
      },
      "properties": {
        "id": "osm-251615210-251615211-ce1e9bedc0",
        "name": "Rio Mondego",
        "stroke": "#1e3a8a",
        "stroke-width": 3
      }
    },
    {
      "type": "Feature",
      "geometry": {
        "type": "Point",
        "coordinates": [
          -8.3691312,
          40.1987062
        ]
      },
      "properties": {
        "title": "osm-251615210-251615211-ce1e9bedc0 upstream",
        "marker-color": "#16a34a"
      }
    },
    {
      "type": "Feature",
      "geometry": {
        "type": "Point",
        "coordinates": [
          -8.3696925,
          40.1983923
        ]
      },
      "properties": {
        "title": "osm-251615210-251615211-ce1e9bedc0 downstream",
        "marker-color": "#dc2626"
      }
    },
    {
      "type": "Feature",
      "geometry": {
        "type": "LineString",
        "coordinates": [
          [
            -8.3696925,
            40.1983923
          ],
          [
            -8.3700143,
            40.198209
          ]
        ]
      },
      "properties": {
        "id": "osm-251615211-10221406544-07c3001654",
        "name": "Rio Mondego",
        "stroke": "#1e3a8a",
        "stroke-width": 3
      }
    },
    {
      "type": "Feature",
      "geometry": {
        "type": "Point",
        "coordinates": [
          -8.3696925,
          40.1983923
        ]
      },
      "properties": {
        "title": "osm-251615211-10221406544-07c3001654 upstream",
        "marker-color": "#16a34a"
      }
    },
    {
      "type": "Feature",
      "geometry": {
        "type": "Point",
        "coordinates": [
          -8.3700143,
          40.198209
        ]
      },
      "properties": {
        "title": "osm-251615211-10221406544-07c3001654 downstream",
        "marker-color": "#dc2626"
      }
    },
    {
      "type": "Feature",
      "geometry": {
        "type": "LineString",
        "coordinates": [
          [
            -8.3700143,
            40.198209
          ],
          [
            -8.370135,
            40.1981403
          ],
          [
            -8.3705553,
            40.1980441
          ],
          [
            -8.3713021,
            40.1978868
          ],
          [
            -8.3726315,
            40.197729
          ],
          [
            -8.3735937,
            40.1973885
          ],
          [
            -8.3741621,
            40.1972504
          ]
        ]
      },
      "properties": {
        "id": "osm-10221406544-10309165373-3586f27e06",
        "name": "Rio Mondego",
        "stroke": "#1e3a8a",
        "stroke-width": 3
      }
    },
    {
      "type": "Feature",
      "geometry": {
        "type": "Point",
        "coordinates": [
          -8.3700143,
          40.198209
        ]
      },
      "properties": {
        "title": "osm-10221406544-10309165373-3586f27e06 upstream",
        "marker-color": "#16a34a"
      }
    },
    {
      "type": "Feature",
      "geometry": {
        "type": "Point",
        "coordinates": [
          -8.3741621,
          40.1972504
        ]
      },
      "properties": {
        "title": "osm-10221406544-10309165373-3586f27e06 downstream",
        "marker-color": "#dc2626"
      }
    },
    {
      "type": "Feature",
      "geometry": {
        "type": "LineString",
        "coordinates": [
          [
            -8.3741621,
            40.1972504
          ],
          [
            -8.3747267,
            40.1971132
          ],
          [
            -8.3754734,
            40.1968641
          ],
          [
            -8.376409,
            40.1964642
          ],
          [
            -8.377293,
            40.1959003
          ],
          [
            -8.3778168,
            40.1954475
          ],
          [
            -8.3783125,
            40.1949668
          ],
          [
            -8.3789347,
            40.1942993
          ],
          [
            -8.3792244,
            40.1940412
          ],
          [
            -8.3795462,
            40.1937789
          ],
          [
            -8.3800521,
            40.1934548
          ],
          [
            -8.3804528,
            40.1932544
          ],
          [
            -8.3812199,
            40.192984
          ],
          [
            -8.3817698,
            40.1930311
          ],
          [
            -8.3824993,
            40.192863
          ],
          [
            -8.3836173,
            40.1925007
          ],
          [
            -8.3845648,
            40.1921726
          ],
          [
            -8.3853849,
            40.1917266
          ],
          [
            -8.3861689,
            40.1913418
          ]
        ]
      },
      "properties": {
        "id": "osm-10309165373-251615232-52438e1f86",
        "name": "Rio Mondego",
        "stroke": "#1e3a8a",
        "stroke-width": 3
      }
    },
    {
      "type": "Feature",
      "geometry": {
        "type": "Point",
        "coordinates": [
          -8.3741621,
          40.1972504
        ]
      },
      "properties": {
        "title": "osm-10309165373-251615232-52438e1f86 upstream",
        "marker-color": "#16a34a"
      }
    },
    {
      "type": "Feature",
      "geometry": {
        "type": "Point",
        "coordinates": [
          -8.3861689,
          40.1913418
        ]
      },
      "properties": {
        "title": "osm-10309165373-251615232-52438e1f86 downstream",
        "marker-color": "#dc2626"
      }
    },
    {
      "type": "Feature",
      "geometry": {
        "type": "LineString",
        "coordinates": [
          [
            -8.3861689,
            40.1913418
          ],
          [
            -8.3870602,
            40.1908363
          ]
        ]
      },
      "properties": {
        "id": "osm-251615232-251615233-688d6fc11f",
        "name": "Rio Mondego",
        "stroke": "#1e3a8a",
        "stroke-width": 3
      }
    },
    {
      "type": "Feature",
      "geometry": {
        "type": "Point",
        "coordinates": [
          -8.3861689,
          40.1913418
        ]
      },
      "properties": {
        "title": "osm-251615232-251615233-688d6fc11f upstream",
        "marker-color": "#16a34a"
      }
    },
    {
      "type": "Feature",
      "geometry": {
        "type": "Point",
        "coordinates": [
          -8.3870602,
          40.1908363
        ]
      },
      "properties": {
        "title": "osm-251615232-251615233-688d6fc11f downstream",
        "marker-color": "#dc2626"
      }
    },
    {
      "type": "Feature",
      "geometry": {
        "type": "Point",
        "coordinates": [
          -8.3696885,
          40.1975766
        ]
      },
      "properties": {
        "title": "001",
        "marker-color": "#2563eb"
      }
    },
    {
      "type": "Feature",
      "geometry": {
        "type": "Point",
        "coordinates": [
          -8.3688321,
          40.1986569
        ]
      },
      "properties": {
        "title": "002",
        "marker-color": "#2563eb"
      }
    },
    {
      "type": "Feature",
      "geometry": {
        "type": "Point",
        "coordinates": [
          -8.3669041,
          40.203859
        ]
      },
      "properties": {
        "title": "003",
        "marker-color": "#2563eb"
      }
    },
    {
      "type": "Feature",
      "geometry": {
        "type": "Point",
        "coordinates": [
          -8.37435,
          40.1980409
        ]
      },
      "properties": {
        "title": "004",
        "marker-color": "#2563eb"
      }
    },
    {
      "type": "Feature",
      "geometry": {
        "type": "Point",
        "coordinates": [
          -8.3855509,
          40.1907306
        ]
      },
      "properties": {
        "title": "005",
        "marker-color": "#2563eb"
      }
    },
    {
      "type": "Feature",
      "geometry": {
        "type": "Point",
        "coordinates": [
          -8.3536975,
          40.2049638
        ]
      },
      "properties": {
        "title": "006",
        "marker-color": "#2563eb"
      }
    },
    {
      "type": "Feature",
      "geometry": {
        "type": "Point",
        "coordinates": [
          -8.3549515,
          40.2049991
        ]
      },
      "properties": {
        "title": "007",
        "marker-color": "#2563eb"
      }
    },
    {
      "type": "Feature",
      "geometry": {
        "type": "Point",
        "coordinates": [
          -8.3603774,
          40.2050689
        ]
      },
      "properties": {
        "title": "008",
        "marker-color": "#2563eb"
      }
    },
    {
      "type": "Feature",
      "geometry": {
        "type": "Point",
        "coordinates": [
          -8.361458,
          40.2047164
        ]
      },
      "properties": {
        "title": "009",
        "marker-color": "#2563eb"
      }
    },
    {
      "type": "Feature",
      "geometry": {
        "type": "Point",
        "coordinates": [
          -8.3696925,
          40.1983923
        ]
      },
      "properties": {
        "title": "010",
        "marker-color": "#2563eb"
      }
    },
    {
      "type": "Feature",
      "geometry": {
        "type": "Point",
        "coordinates": [
          -8.3870602,
          40.1908363
        ]
      },
      "properties": {
        "title": "011",
        "marker-color": "#2563eb"
      }
    },
    {
      "type": "Feature",
      "geometry": {
        "type": "Point",
        "coordinates": [
          -8.3870602,
          40.1908363
        ]
      },
      "properties": {
        "title": "OUTLET",
        "marker-color": "#000000"
      }
    }
  ]
}
